ONEWEB-0098             
1 45442U 20020U   23090.21600171  .00000558  00000+0  15381-2 0  9992
2 45442  87.8829 254.2625 0001750 106.8184 253.3135 13.11415638148772
ONEWEB-0055             
1 45443U 20020V   23090.20140518  .00000406  00000+0  11088-2 0  9998
2 45443  87.8833 254.2687 0001668 102.8524 257.2790 13.11407771148755
ONEWEB-0093             
1 45444U 20020W   23090.17558931 -.00000582  00000+0 -16788-2 0  9996
2 45444  87.8820 254.2736 0001652 109.4352 250.6954 13.11417645148819
ONEWEB-0029             
1 45445U 20020X   23090.19690611  .00000277  00000+0  74692-3 0  9999
2 45445  87.8831 254.2657 0001493 104.9639 255.1654 13.11422065148791
ONEWEB-0068             
1 45446U 20020Y   23090.16776371 -.00000403  00000+0 -11738-2 0  9999
2 45446  87.8821 254.2716 0001705 112.5371 247.5938 13.11414314148733
ONEWEB-0046             
1 45447U 20020Z   23090.46957013 -.00000314  00000+0 -92131-3 0  9995
2 45447  87.8818 254.2228 0001554  94.8040 265.3265 13.11411776148780
ONEWEB-0063             
1 45448U 20020AA  23090.19355661  .00000156  00000+0  40555-3 0  9992
2 45448  87.8832 254.2629 0001520  89.0670 271.0632 13.11418384148829
ONEWEB-0019             
1 45449U 20020AB  23090.47404617 -.00000400  00000+0 -11651-2 0  9998
2 45449  87.8825 254.2134 0001808  97.5407 262.5927 13.11414558148713
ONEWEB-0094             
1 45450U 20020AC  23090.48294214  .00000064  00000+0  13071-3 0  9994
2 45450  87.9233 239.0903 0001663 103.6265 256.5052 13.17650989151749
ONEWEB-0087             
1 45451U 20020AD  23090.20253424  .00000517  00000+0  14236-2 0  9999
2 45451  87.8765 254.2076 0001387 108.8196 251.3082 13.11417730148721
ONEWEB-0082             
1 45452U 20020AE  23090.50998734  .00000413  00000+0  11288-2 0  9992
2 45452  87.8832 254.1747 0001734 102.8128 257.3194 13.11418842148855
ONEWEB-0050             
1 45453U 20020AF  23090.70818249 -.00016833  00000+0 -13431-2 0  9994
2 45453  87.5393 150.1800 0023160 237.9909 121.9074 15.00310226165280
ONEWEB-0034             
1 45454U 20020AG  23090.22273436  .00000443  00000+0  12130-2 0  9998
2 45454  87.8825 254.2510 0001487 103.3123 256.8171 13.11416712148734
ONEWEB-0060             
1 45455U 20020AH  23090.15428258  .00000012  00000+0 -68916-6 0  9995
2 45455  87.8820 254.2736 0001628  98.7723 261.3589 13.11413555148680
ONEWEB-0086             
1 45456U 20020AJ  23090.47853508 -.00000524  00000+0 -15137-2 0  9993
2 45456  87.8829 254.2042 0001594 106.3181 253.8123 13.11416661148777
ONEWEB-0088             
1 45457U 20020AK  23090.83534751  .00000381  00000+0  10402-2 0  9999
2 45457  87.8818 254.1272 0001443 100.0724 260.0566 13.11414552148764
YAOGAN-30 R             
1 45460U 20021A   23091.12822254  .00004188  00000+0  40870-3 0  9997
2 45460  34.9963 100.7696 0004921 243.4728 116.5485 14.91911059164630
YAOGAN-30 S             
1 45461U 20021B   23091.10665694  .00004115  00000+0  40172-3 0  9994
2 45461  34.9962 100.5594 0002147 148.6775 211.4080 14.91908074164607
YAOGAN-30 T             
1 45462U 20021C   23091.15143586  .00005655  00000+0  55099-3 0  9995
2 45462  34.9979  98.2227 0002774 286.9815  73.1853 14.91904955164637
AEHF-6 (USA 298)        
1 45465U 20022B   23090.96707233 -.00000309  00000+0  00000+0 0  9992
2 45465   5.2765 300.7369 0049540   9.7131   4.5106  1.00271622 11225
STARLINK-1329           
1 45531U 20025A   23090.79917627  .00039431  00000+0  26509-2 0  9992
2 45531  53.0517 247.5019 0000870 101.1458 258.9629 15.06405070162631
STARLINK-1338           
1 45532U 20025B   23090.81023540  .00027341  00000+0  18484-2 0  9998
2 45532  53.0527 247.4473 0000183  76.6467 283.4543 15.06377163162650
STARLINK-1341           
1 45534U 20025D   23091.15284535  .00036026  00000+0  24142-2 0  9999
2 45534  53.0520 245.9092 0000736  96.6102 263.4971 15.06567999162692
STARLINK-1350           
1 45535U 20025E   23090.83971164  .00030222  00000+0  20394-2 0  9992
2 45535  53.0505 247.3180 0000952  63.1540 296.9546 15.06394775162650
STARLINK-1352           
1 45536U 20025F   23090.57799146  .00005212  00000+0  36835-3 0  9991
2 45536  53.0537 248.4912 0001582  93.5652 266.5518 15.06420799162616
STARLINK-1362           
1 45538U 20025H   23090.47111944 -.00007675  00000+0 -49714-3 0  9993
2 45538  53.0537 248.9732 0001182  84.3961 275.7163 15.06381450162595
STARLINK-1368           
1 45540U 20025K   23090.84709078  .00027241  00000+0  18421-2 0  9997
2 45540  53.0513 247.2855 0001165  42.0732 318.0346 15.06369960162651
STARLINK-1369           
1 45541U 20025L   23090.85077764  .00020544  00000+0  13949-2 0  9998
2 45541  53.0517 247.2705 0001491  59.2591 300.8545 15.06377018162658
STARLINK-1371           
1 45542U 20025M   23091.14934567  .00029379  00000+0  19837-2 0  9992
2 45542  53.0512 245.9290 0000597  52.0466 308.0576 15.06387182162697
STARLINK-1372           
1 45543U 20025N   23091.11984588  .00021370  00000+0  14492-2 0  9993
2 45543  53.0528 246.0569 0001392  56.7244 303.3878 15.06399696162691
STARLINK-1373           
1 45544U 20025P   23091.13827298  .00030698  00000+0  20705-2 0  9997
2 45544  53.0509 245.9784 0000679  99.7915 260.3150 15.06405704162689
STARLINK-1374           
1 45545U 20025Q   23091.15667848  .00037191  00000+0  24994-2 0  9992
2 45545  53.0523 245.8909 0000985  71.1666 288.9430 15.06446526162708
STARLINK-1375           
1 45546U 20025R   23090.83603334  .00027781  00000+0  18785-2 0  9992
2 45546  53.0537 247.3342 0000887  52.1722 307.9347 15.06362587162652
STARLINK-1377           
1 45547U 20025S   23091.16407928  .00034621  00000+0  23315-2 0  9997
2 45547  53.0516 245.8642 0000600  63.8288 296.2763 15.06403864162707
STARLINK-1378           
1 45548U 20025T   23090.52640094  .00006120  00000+0  42955-3 0  9995
2 45548  53.0543 248.7223 0001171 102.9125 257.1995 15.06384094162609
STARLINK-1390           
1 45550U 20025V   23090.73482090  .00035028  00000+0  22858-2 0  9999
2 45550  53.0527 247.7030 0000907 348.5774  11.5194 15.07563946162624
STARLINK-1294           
1 45551U 20025W   23090.61302713  .00015082  00000+0  10298-2 0  9993
2 45551  53.0513 228.3361 0001095  64.4425 295.6677 15.06378381162872
STARLINK-1323           
1 45553U 20025Y   23090.42499832 -.00002857  00000+0 -17313-3 0  9997
2 45553  53.0520 229.1795 0002664 315.3594  44.7181 15.06364309162856
STARLINK-1325           
1 45554U 20025Z   23090.81482037  .00035972  00000+0  24234-2 0  9991
2 45554  53.0519 227.4202 0001149 111.7572 248.3539 15.06371361162901
STARLINK-1327           
1 45555U 20025AA  23090.77889979  .00048472  00000+0  32497-2 0  9992
2 45555  53.0512 227.5858 0000576 120.2006 239.9040 15.06411766162900
STARLINK-1334           
1 45556U 20025AB  23091.08483975  .00037192  00000+0  25028-2 0  9993
2 45556  53.0532 226.2159 0001172 104.1387 255.9732 15.06396771162958
STARLINK-1336           
1 45557U 20025AC  23090.76047708  .00007814  00000+0  54290-3 0  9990
2 45557  53.0531 227.6721 0001276  59.8666 300.2449 15.06400879162908
STARLINK-1342           
1 45558U 20025AD  23090.99269606  .00036380  00000+0  24489-2 0  9995
2 45558  53.0531 226.6268 0001324  91.3255 268.7886 15.06396745162935
STARLINK-1344           
1 45559U 20025AE  23090.75952350  .00032837  00000+0  22141-2 0  9991
2 45559  53.0526 227.6279 0001152  69.3884 290.7229 15.06383524162909
STARLINK-1346           
1 45560U 20025AF  23090.74938116  .00046142  00000+0  30945-2 0  9991
2 45560  53.0520 217.7112 0001219 103.2617 256.8508 15.06422822163041
STARLINK-1354           
1 45562U 20025AH  23090.77149494  .00047711  00000+0  31956-2 0  9995
2 45562  53.0531 227.6236 0001417  58.6455 301.4672 15.06455154162902
STARLINK-1355           
1 45563U 20025AJ  23090.58724340  .00017762  00000+0  12091-2 0  9996
2 45563  53.0527 228.4507 0001572  87.1502 272.9667 15.06376569162874
STARLINK-1356           
1 45564U 20025AK  23090.58353722  .00033506  00000+0  22589-2 0  9996
2 45564  53.0531 228.4639 0000616  46.2936 313.8104 15.06378416162875
STARLINK-1357           
1 45565U 20025AL  23090.37713458  .00013889  00000+0  94933-3 0  9995
2 45565  53.0505 229.3985 0002189  68.4595 291.6627 15.06406277162853
STARLINK-1358           
1 45566U 20025AM  23090.52457544  .00007422  00000+0  51691-3 0  9994
2 45566  53.0542 228.7320 0000863  37.6170 322.4879 15.06381346162867
STARLINK-1361           
1 45567U 20025AN  23090.80103149  .00037145  00000+0  25039-2 0  9996
2 45567  53.0538 227.4894 0001248  66.4726 293.6394 15.06334800162909
STARLINK-1363           
1 45568U 20025AP  23090.61673927  .00025447  00000+0  17217-2 0  9993
2 45568  53.0519 228.5615 0000985 113.7019 246.4074 15.06386048162878
STARLINK-1366           
1 45569U 20025AQ  23090.40660345  .00003912  00000+0  28144-3 0  9996
2 45569  53.0512 229.2632 0001739 100.0568 260.0617 15.06388343162847
STARLINK-1376           
1 45570U 20025AR  23090.79730315  .00028854  00000+0  19517-2 0  9990
2 45570  53.0530 227.5071 0001553  60.4516 299.6627 15.06330083162918
STARLINK-1261           
1 45571U 20025AS  23091.07843682  .00039339  00000+0  26486-2 0  9998
2 45571  53.0537 216.2468 0001162 104.9803 255.1314 15.06351758163092
STARLINK-1320           
1 45572U 20025AT  23091.07102138  .00039012  00000+0  26246-2 0  9995
2 45572  53.0523 216.2813 0001260  81.6450 278.4682 15.06384460163081
STARLINK-1321           
1 45573U 20025AU  23090.78351292  .00028090  00000+0  18989-2 0  9999
2 45573  53.0528 217.5700 0001078  97.3063 262.8048 15.06366405163045
STARLINK-1324           
1 45574U 20025AV  23091.07471791  .00033641  00000+0  22672-2 0  9992
2 45574  53.0519 216.2632 0000994  95.9071 264.2031 15.06390195163091
STARLINK-1328           
1 45576U 20025AX  23090.37066744  .00003699  00000+0  26709-3 0  9990
2 45576  53.0521 219.4255 0001693  78.1183 281.9996 15.06395942162984
